loc_rowid,star_name,planet_letter,pl_pnum,orbital_period,radius,st_dist,st_teff,st_mass,st_rad,rowupdate
2290,Kepler-28,c,2,8.9858,0.303,,4590,0.75,0.7,5/14/2014
2291,Kepler-280,b,2,2.139542,0.129,,5744,0.91,0.89,5/14/2014
2292,Kepler-280,c,2,4.807091,0.179,,5744,0.91,0.89,5/14/2014
2293,Kepler-281,b,2,14.646008,0.252,,5723,0.98,0.9,5/14/2014
2294,Kepler-281,c,2,36.337373,0.474,,5723,0.98,0.9,5/14/2014
2295,Kepler-282,b,4,9.220524,0.09,,5602,0.97,0.9,5/14/2014
2296,Kepler-282,c,4,13.638723,0.107,,5602,0.97,0.9,5/14/2014
2297,Kepler-282,d,4,24.806,0.219,,5602,0.97,0.9,5/14/2014
2298,Kepler-282,e,4,44.347,0.277,,5602,0.97,0.9,5/14/2014
2299,Kepler-283,b,2,11.008151,0.19,,4351,,0.57,5/14/2014
2300,Kepler-283,c,2,92.743711,0.162,,4351,,0.57,5/14/2014
2301,Kepler-284,b,2,12.699149,0.2,,5615,,0.81,5/14/2014
2302,Kepler-284,c,2,37.514456,0.233,,5615,,0.81,5/14/2014
2303,Kepler-285,b,2,2.633867,0.12,,5411,0.85,0.81,5/14/2014
2304,Kepler-285,c,2,6.186676,0.1,,5411,0.85,0.81,5/14/2014
2305,Kepler-286,b,4,1.796302,0.111,,5580,,0.86,5/14/2014
2306,Kepler-286,c,4,3.468095,0.122,,5580,,0.86,5/14/2014
2307,Kepler-286,d,4,5.914323,0.119,,5580,,0.86,5/14/2014
2308,Kepler-286,e,4,29.221289,0.158,,5580,,0.86,5/14/2014
2309,Kepler-287,b,2,20.342199,0.208,,5806,,1.03,5/14/2014
2310,Kepler-287,c,2,44.851896,0.291,,5806,,1.03,5/14/2014
2311,Kepler-288,b,3,6.097326,0.149,,5918,0.89,1.09,5/14/2014
2312,Kepler-288,c,3,19.305772,0.254,,5918,0.89,1.09,5/14/2014
2313,Kepler-288,d,3,56.633742,0.238,,5918,0.89,1.09,5/14/2014
2314,Kepler-289,b,3,34.545,0.192,700,5990,1.08,1,11/19/2014
2315,Kepler-289,c,3,125.8518,1.034,700,5990,1.08,1,11/19/2014
2316,Kepler-289,d,3,66.0634,0.239,700,5990,1.08,1,11/19/2014
2317,Kepler-29,b,2,10.3384,0.299,1400,5701,0.98,0.93,4/7/2016
2318,Kepler-29,c,2,13.2884,0.28,1400,5701,0.98,0.93,4/7/2016
2319,Kepler-290,b,2,14.589347,0.201,,5147,,0.74,5/14/2014
2320,Kepler-290,c,2,36.77031,0.241,,5147,,0.74,5/14/2014
2321,Kepler-291,b,2,3.546511,0.193,,6002,1.03,1.02,5/14/2014
2322,Kepler-291,c,2,5.700786,0.168,,6002,1.03,1.02,5/14/2014
2323,Kepler-292,b,5,2.580827,0.118,,5299,0.88,0.83,5/14/2014
2324,Kepler-292,c,5,3.715335,0.131,,5299,0.88,0.83,5/14/2014
2325,Kepler-292,d,5,7.055679,0.199,,5299,0.88,0.83,5/14/2014
2326,Kepler-292,e,5,11.97901,0.238,,5299,0.88,0.83,5/14/2014
2327,Kepler-292,f,5,20.834237,0.21,,5299,0.88,0.83,5/14/2014
2328,Kepler-293,b,2,19.254196,0.274,,5804,1.01,0.96,5/14/2014
2329,Kepler-293,c,2,54.155743,0.342,,5804,1.01,0.96,5/14/2014
2330,Kepler-294,b,2,3.701212,0.158,,5913,,0.98,5/14/2014
2331,Kepler-294,c,2,6.6264,0.242,,5913,,0.98,5/14/2014
2332,Kepler-295,b,3,12.645164,0.109,,5603,,0.9,5/14/2014
2333,Kepler-295,c,3,21.526258,0.104,,5603,,0.9,5/14/2014
2334,Kepler-295,d,3,33.884054,0.121,,5603,,0.9,5/14/2014
2335,Kepler-296,b,5,10.864384,0.144,226,3740,0.5,0.48,9/3/2015
2336,Kepler-296,c,5,5.8416366,0.178,226,3740,0.5,0.48,9/3/2015
2337,Kepler-296,d,5,19.850291,0.186,226,3740,0.5,0.48,9/3/2015
2338,Kepler-296,e,5,34.14211,0.136,226,3740,0.5,0.48,9/3/2015
2339,Kepler-296,f,5,63.33627,0.161,226,3740,0.5,0.48,9/3/2015
2340,Kepler-297,b,2,38.871826,0.256,,5619,,0.92,5/14/2014
2341,Kepler-297,c,2,74.920137,0.583,,5619,,0.92,5/14/2014
2342,Kepler-298,b,3,10.475464,0.175,,4465,0.65,0.58,5/14/2014
2343,Kepler-298,c,3,22.92881,0.172,,4465,0.65,0.58,5/14/2014
2344,Kepler-298,d,3,77.473633,0.223,,4465,0.65,0.58,5/14/2014
2345,Kepler-299,b,4,2.927128,0.118,,5617,0.97,1.03,5/14/2014
2346,Kepler-299,c,4,6.885875,0.236,,5617,0.97,1.03,5/14/2014
2347,Kepler-299,d,4,15.054786,0.166,,5617,0.97,1.03,5/14/2014
2348,Kepler-299,e,4,38.285489,0.167,,5617,0.97,1.03,5/14/2014
2349,Kepler-30,b,3,29.33434,0.348,1400,5498,0.99,0.95,5/14/2014
2350,Kepler-30,c,3,60.323105,1.097,1400,5498,0.99,0.95,5/14/2014
2351,Kepler-30,d,3,143.34394,0.785,1400,5498,0.99,0.95,5/14/2014
2352,Kepler-300,b,2,10.446347,0.149,,5986,0.94,0.9,5/14/2014
2353,Kepler-300,c,2,40.714955,0.201,,5986,0.94,0.9,5/14/2014
2354,Kepler-301,b,3,2.508553,0.12,,5815,0.91,0.9,5/14/2014
2355,Kepler-301,c,3,5.419026,0.12,,5815,0.91,0.9,5/14/2014
2356,Kepler-301,d,3,13.751243,0.156,,5815,0.91,0.9,5/14/2014
2357,Kepler-302,b,2,30.184104,0.362,,5740,,1.22,5/14/2014
2358,Kepler-302,c,2,127.282184,1.111,,5740,,1.22,5/14/2014
2359,Kepler-303,b,2,1.937055,0.079,,3944,0.59,0.48,5/14/2014
2360,Kepler-303,c,2,7.061149,0.102,,3944,0.59,0.48,5/14/2014
2361,Kepler-304,b,4,3.295709,0.255,,4731,0.8,0.69,5/14/2014
2362,Kepler-304,c,4,5.315946,0.194,,4731,0.8,0.69,5/14/2014
2363,Kepler-304,d,4,9.653471,0.245,,4731,0.8,0.69,5/14/2014
2364,Kepler-304,e,4,1.49914695,0.107,,4731,0.8,0.69,5/10/2016
2365,Kepler-305,b,3,5.487,0.321,,5100,0.76,0.79,5/14/2014
2366,Kepler-305,c,3,8.291,0.294,,5100,0.76,0.79,5/14/2014
2367,Kepler-305,d,3,16.738661,0.242,,5100,0.76,0.79,5/14/2014
2368,Kepler-306,b,4,4.646186,0.136,,4954,0.82,0.72,5/14/2014
2369,Kepler-306,c,4,7.240193,0.21,,4954,0.82,0.72,5/14/2014
2370,Kepler-306,d,4,17.326644,0.22,,4954,0.82,0.72,5/14/2014
2371,Kepler-306,e,4,44.840975,0.203,,4954,0.82,0.72,5/14/2014
2372,Kepler-307,b,2,10.4208,0.217,,5367,0.91,0.81,4/7/2016
2373,Kepler-307,c,2,13.0729,0.196,,5367,0.91,0.81,4/7/2016
2374,Kepler-308,b,2,9.694928,0.189,,5895,,0.94,5/14/2014
2375,Kepler-308,c,2,15.38231,0.193,,5895,,0.94,5/14/2014
2376,Kepler-309,b,2,5.923653,0.139,,4713,,0.72,5/14/2014
2377,Kepler-309,c,2,105.356383,0.224,,4713,,0.72,5/14/2014
2378,Kepler-31,b,3,20.8613,0.491,2100,6340,1.21,1.22,5/14/2014
2379,Kepler-31,c,3,42.6318,0.473,2100,6340,1.21,1.22,5/14/2014
2380,Kepler-31,d,3,87.6451,0.348,2100,6340,1.21,1.22,3/24/2016
2381,Kepler-310,b,3,13.930698,0.106,,5797,0.85,0.88,5/14/2014
2382,Kepler-310,c,3,56.47542,0.302,,5797,0.85,0.88,5/14/2014
2383,Kepler-310,d,3,92.876125,0.22,,5797,0.85,0.88,5/14/2014
2384,Kepler-311,b,2,9.176092,0.152,,5905,1.06,1.19,5/14/2014
2385,Kepler-311,c,2,19.738286,0.128,,5905,1.06,1.19,5/14/2014
2386,Kepler-312,b,2,1.772419,0.115,,6115,1.23,1.47,5/14/2014
2387,Kepler-312,c,2,19.747412,0.281,,6115,1.23,1.47,5/14/2014
2388,Kepler-313,b,2,14.970418,0.226,,5727,0.9,1.54,5/14/2014
2389,Kepler-313,c,2,32.273273,0.229,,5727,0.9,1.54,5/14/2014
2390,Kepler-314,b,2,2.461069,0.074,,5378,1.02,0.95,5/14/2014
2391,Kepler-314,c,2,5.960392,0.259,,5378,1.02,0.95,5/14/2014
2392,Kepler-315,b,2,96.101141,0.336,,5796,0.78,1.04,5/14/2014
2393,Kepler-315,c,2,265.469335,0.37,,5796,0.78,1.04,5/14/2014
2394,Kepler-316,b,2,2.240508,0.095,,4204,0.53,0.52,5/14/2014
2395,Kepler-316,c,2,6.827766,0.103,,4204,0.53,0.52,5/14/2014
2396,Kepler-317,b,2,5.524242,0.186,,5497,0.95,0.94,5/14/2014
2397,Kepler-317,c,2,8.77501,0.153,,5497,0.95,0.94,5/14/2014
2398,Kepler-318,b,2,4.662715,0.42,,5746,1.05,1.19,5/14/2014
2399,Kepler-318,c,2,11.815007,0.328,,5746,1.05,1.19,5/14/2014
2400,Kepler-319,b,3,4.362705,0.145,,5526,1.29,0.9,5/14/2014
2401,Kepler-319,c,3,6.941357,0.235,,5526,1.29,0.9,5/14/2014
2402,Kepler-319,d,3,31.781925,0.204,,5526,1.29,0.9,5/14/2014
2403,Kepler-32,b,5,5.90124,0.196,303,3900,0.58,0.53,3/24/2016
2404,Kepler-32,c,5,8.7522,0.178,303,3900,0.58,0.53,3/24/2016
2405,Kepler-32,d,5,22.7802,0.241,303,3900,0.58,0.53,3/24/2016
2406,Kepler-32,e,5,2.896,0.134,303,3900,0.58,0.53,3/24/2016
2407,Kepler-32,f,5,0.74296,0.073,303,3900,0.58,0.53,3/24/2016
2408,Kepler-320,b,2,8.371554,0.102,,6435,,1.11,5/14/2014
2409,Kepler-320,c,2,17.934937,0.122,,6435,,1.11,5/14/2014
2410,Kepler-321,b,2,4.915379,0.158,,5740,1.01,1.19,5/14/2014
2411,Kepler-321,c,2,13.093921,0.207,,5740,1.01,1.19,5/14/2014
2412,Kepler-322,b,2,1.653888,0.09,,5388,0.91,0.89,5/14/2014
2413,Kepler-322,c,2,4.337234,0.149,,5388,0.91,0.89,5/14/2014
2414,Kepler-323,b,2,1.678327,0.128,,5987,1.09,1.18,5/14/2014
2415,Kepler-323,c,2,3.553822,0.145,,5987,1.09,1.18,5/14/2014
2416,Kepler-324,b,2,4.385315,0.102,,5194,0.86,0.84,5/14/2014
2417,Kepler-324,c,2,51.805612,0.281,,5194,0.86,0.84,5/14/2014
2418,Kepler-325,b,3,4.544439,0.26,,5752,0.87,1,5/14/2014
2419,Kepler-325,c,3,12.762172,0.227,,5752,0.87,1,5/14/2014
2420,Kepler-325,d,3,38.715185,0.249,,5752,0.87,1,5/14/2014
2421,Kepler-326,b,3,2.248329,0.136,,5105,0.98,0.8,5/14/2014
2422,Kepler-326,c,3,4.580358,0.125,,5105,0.98,0.8,5/14/2014
2423,Kepler-326,d,3,6.766888,0.108,,5105,0.98,0.8,5/14/2014
2424,Kepler-327,b,3,2.549575,0.099,,3799,0.55,0.49,5/14/2014
2425,Kepler-327,c,3,5.212333,0.092,,3799,0.55,0.49,5/14/2014
2426,Kepler-327,d,3,13.969457,0.154,,3799,0.55,0.49,5/14/2014
2427,Kepler-328,b,2,34.921,0.205,,5914,1.15,1.06,5/14/2014
2428,Kepler-328,c,2,71.312,0.482,,5914,1.15,1.06,5/14/2014
2429,Kepler-329,b,2,7.416397,0.125,,4257,0.53,0.52,5/14/2014
2430,Kepler-329,c,2,18.684737,0.172,,4257,0.53,0.52,5/14/2014
2431,Kepler-33,b,5,5.66793,0.155,,5904,1.29,1.82,5/14/2014
2432,Kepler-33,c,5,13.17562,0.285,,5904,1.29,1.82,5/14/2014
2433,Kepler-33,d,5,21.77596,0.477,,5904,1.29,1.82,5/14/2014
2434,Kepler-33,e,5,31.7844,0.359,,5904,1.29,1.82,5/14/2014
2435,Kepler-33,f,5,41.02902,0.398,,5904,1.29,1.82,5/14/2014
2436,Kepler-330,b,2,8.25978,0.12,,5117,0.78,0.72,5/14/2014
2437,Kepler-330,c,2,15.955387,0.174,,5117,0.78,0.72,5/14/2014
2438,Kepler-331,b,3,8.457496,0.162,,4347,0.51,0.49,5/14/2014
2439,Kepler-331,c,3,17.28111,0.164,,4347,0.51,0.49,5/14/2014
2440,Kepler-331,d,3,32.134328,0.146,,4347,0.51,0.49,5/14/2014
2441,Kepler-332,b,3,7.626324,0.104,,4955,0.8,0.72,5/14/2014
2442,Kepler-332,c,3,15.995622,0.097,,4955,0.8,0.72,5/14/2014
2443,Kepler-332,d,3,34.21154,0.105,,4955,0.8,0.72,5/14/2014
2444,Kepler-333,b,2,12.551158,0.118,,4259,0.54,0.53,5/14/2014
2445,Kepler-333,c,2,24.08821,0.099,,4259,0.54,0.53,5/14/2014
2446,Kepler-334,b,3,5.470319,0.1,,5828,1,1.07,5/14/2014
2447,Kepler-334,c,3,12.758005,0.128,,5828,1,1.07,5/14/2014
2448,Kepler-334,d,3,25.09849,0.126,,5828,1,1.07,5/14/2014
2449,Kepler-335,b,2,6.562331,0.302,,5877,0.99,1.85,5/14/2014
2450,Kepler-335,c,2,67.844469,0.274,,5877,0.99,1.85,5/14/2014
